{
  "norad_id": 58749,
  "name": "STARLINK-31160",
  "history": [
    {
      "epoch": "2026-03-28T18:56:00.871872",
      "apogee_km": 486.8465814149258,
      "perigee_km": 484.2426378858563,
      "latitude_deg": 36.08045065796482,
      "longitude_deg": 130.6343020799104,
      "semi_major_axis_km": 6863.681609650391,
      "eccentricity": 0.00018969,
      "inclination_deg": 43.0071,
      "raan_deg": 111.9128,
      "arg_perigee_deg": 256.3263,
      "mean_anomaly_deg": 103.7377,
      "mean_motion_rev_day": 15.26746974
    },
    {
      "epoch": "2026-03-29T02:47:03.401376",
      "apogee_km": 486.3975555017696,
      "perigee_km": 484.69261687156086,
      "latitude_deg": -2.3232111191874156,
      "longitude_deg": 162.03711263998412,
      "semi_major_axis_km": 6863.682086186665,
      "eccentricity": 0.0001242,
      "inclination_deg": 43.0053,
      "raan_deg": 110.0683,
      "arg_perigee_deg": 261.8318,
      "mean_anomaly_deg": 98.2393,
      "mean_motion_rev_day": 15.26746815
    }
  ]
}